[{"OBJECT_NAME":"OBJECT AL","OBJECT_ID":"2023-085AL","EPOCH":"2026-03-09T22:26:04.970400","MEAN_MOTION":15.31857284,"ECCENTRICITY":0.000802,"INCLINATION":97.4839,"RA_OF_ASC_NODE":180.0127,"ARG_OF_PERICENTER":78.7242,"MEAN_ANOMALY":281.49,"EPHEMERIS_TYPE":0,"CLASSIFICATION_TYPE":"U","NORAD_CAT_ID":57038,"ELEMENT_SET_NO":999,"REV_AT_EPOCH":15154,"BSTAR":0.0006591637,"MEAN_MOTION_DOT":0.00020246,"MEAN_MOTION_DDOT":0},{"OBJECT_NAME":"STARLINK-34400","OBJECT_ID":"2025-130AB","EPOCH":"2026-03-09T08:09:38.329344","MEAN_MOTION":15.30180001,"ECCENTRICITY":0.00017595,"INCLINATION":53.1599,"RA_OF_ASC_NODE":92.7018,"ARG_OF_PERICENTER":96.8048,"MEAN_ANOMALY":263.3153,"EPHEMERIS_TYPE":0,"CLASSIFICATION_TYPE":"U","NORAD_CAT_ID":64463,"ELEMENT_SET_NO":999,"REV_AT_EPOCH":4061,"BSTAR":0.00048788452,"MEAN_MOTION_DOT":0.00014109,"MEAN_MOTION_DDOT":0}]
